#dP2023 11 14  0  0  0.00000000      96 __u+U IGS20 FIT  IAC
## 2288 172800.00000000   900.00000000 60262 0.0000000000000
+  117   C06C07C08C09C10C11C12C13C14C16C19C20C21C22C23C24C25
+        C26C27C28C29C30C32C33C34C35C36C37C38C39C40C41C42C43
+        C44C45C46E02E03E04E07E08E09E10E11E12E13E15E19E21E24
+        E25E26E27E30E31E33E34E36G01G02G03G04G05G06G07G08G09
+        G10G11G12G13G14G15G16G17G18G19G20G21G22G23G24G25G26
+        G27G28G29G30G31G32J02J03J04R01R02R03R04R05R07R08R09
+        R11R12R13R14R15R16R17R18R19R20R21R22R24R25R26  0  0
++         9  7  6  9  8  7  6  6  7  8  5  7  6  7  4  6  6
++         6  5  8  6  8  7  7  6  9  6  7 10  8  7  8  7  5
++         5  7  6  5  5  5  5  5  5  6  7  6  4  4  4  5  6
++         6  5  5  5  7  5  5  7  6  6  7  4  5  6  5  6  4
++         5  5  5  4  3  4  5  6  6  6  7  6  5  4  3  5  8
++         6  5  6  5  6  6  8  8  9  7  5  5  6  5  6  6  6
++         7  6  7  6  6  6  7  5  7  7  6  7  6  7  7  0  0
%c M  cc GPS ccc cccc cccc cccc cccc ccccc ccccc ccccc ccccc
%c cc cc ccc ccc cccc cccc cccc cccc ccccc ccccc ccccc ccccc
%f  0.0000000  0.000000000  0.00000000000  0.000000000000000
%f  0.0000000  0.000000000  0.00000000000  0.000000000000000
%i    0    0    0    0      0      0      0      0         0
%i    0    0    0    0      0      0      0      0         0
/* INFORMATION & ANALYSIS CENTER (IAC)      ULTRA-RAPID DATA
/* S/V CLOCKS ARE ALIGNED TO GNSS TIME                      
/* G:C1WC2W R:C1PC2P E:C1XC5X C:C2IC6I J:C1CC2S             
/* PCV:IGS20_2280 OL/AL:FES2004  NONE     YN ORB:CoN CLK:CoN
*  2023 11 14 11 45  0.00000000
PC06 -16031.681852  37789.547941   8951.798507     22.709971
PC07  -3029.990314  33419.315241  25730.328764   -316.784198
PC08 -12744.125807  19503.536679 -35196.393508    241.017233
PC09  -9507.121511  36705.899764  18230.704866    -87.722730
PC10   5114.004391  36820.124544  20722.823787    -16.738345
PC11  13681.427360   7528.144452 -23052.545864    255.393253
PC12   2691.027550  23968.792350 -13998.494755    859.594015
PC13  -5687.238483  21676.576550 -35593.864652    382.401314
PC14  22531.835706  13973.227918   8794.030421    781.819237
PC16 -18465.001552  37327.801584   5643.150898   -174.981337
PC19 -21694.765657  -5828.166654 -16530.904074   -969.782963
PC20 -20347.147948 -19033.537247  -1347.526708    117.695792
PC21   6500.877164  21897.911357 -16033.803964   -969.454294
PC22 -10640.355392  11515.022579 -23095.242384   -225.749949
PC23  22386.746316 -13394.644636  -9894.050575   -821.881170
PC24  15791.818704  10887.054920  20242.836899    595.174091
PC25  26940.499513  -3000.687351   6567.196178    255.396411
PC26  -3312.727194  17231.286653  21688.503637   -206.060268
PC27   2944.602641 -27024.424185   6308.523892    227.929031
PC28  13270.379387 -22568.802322  -9644.077718    171.982297
PC29 -16733.297851   3576.013188  22043.659072    201.199512
PC30  -9868.893524 -17454.186301  19412.982508     -8.334815
PC32  -6532.763930 -21814.137599  16135.841499   -534.828167
PC33  21791.650220   5785.347465  16446.119765   -945.176374
PC34  10737.486083  16083.586207 -20119.542846    303.130433
PC35 -12400.884204  23086.189894   9536.653931    503.108417
PC36 -26866.106938   1767.643829  -7348.111687   -134.983800
PC37   4422.641060 -17213.736903 -21500.960913   -886.291586
PC38 -20978.400502  20265.438968 -30488.985801    117.625682
PC39 -19248.792263  37366.426000    442.394614     -5.676385
PC40  -6267.041005  29558.218816  29548.616338    -43.962650
PC41  11293.700687 -10945.632365  23098.368054   -871.380870
PC42  19758.336205  19721.039036   -118.050223   -499.612646
PC43  16755.335443  -2508.814340 -22182.114743     48.190667
PC44  -1976.101510  27139.284676  -6133.928981    292.439567
PC45 -22074.061574  13552.459468  10416.439108    -45.992865
PC46 -16859.920815 -10151.608613 -19809.118225    -99.689949
PE02 -28511.011904  -4683.553237   6481.897672     78.345577
PE03 -17595.440099  -2957.596730 -23627.862596    -73.403271
PE04  10739.329226 -18424.979511  20527.286667   -257.246450
PE07   2164.736331  28963.532160  -5724.469579    -87.740096
PE08 -10919.639927  17901.251876 -20902.000784   -176.840428
PE09  -2133.874659 -28928.270461   5868.828464   -227.316698
PE10  15932.032226 -22957.132223   9743.750688   -578.782442
PE11   6892.029832 -22198.208860  18326.442298   3202.852827
PE12  21694.595165 -20135.903847    608.826318   -776.657963
PE13  -7580.109259  22349.535740 -17859.553908    -19.605418
PE15 -21890.272508  19926.467963    -93.701238    -69.108740
PE19  17588.531817   5864.820209  23071.300665  -1217.501084
PE21  22515.395323  15517.296262  11325.954575   -564.115821
PE24  -2499.629530 -17892.000910 -23465.853752   -431.049479
PE25 -22263.285794 -15660.609660 -11637.767566     -3.447780
PE26  11629.983859  11249.243475 -24776.595890    280.625151
PE27   3112.760031  17910.302860  23360.954859   -199.614836
PE30 -18247.050697   9483.754439  21289.202367   -661.253381
PE31  17875.413130  -9725.631409 -21484.691399    -10.015840
PE33  22973.509564  -5339.546420 -17869.256459      2.320907
PE34 -23172.124752   5929.871799  17447.966875    -77.891047
PE36 -10946.418292 -11667.139446  24911.135032   -143.883832
PG01 -12229.141375  20537.471423 -11543.640557    163.198692
PG02 -15787.434582  20739.841066  -4010.768094   -529.100740
PG03  -4238.786810  14206.676865 -22182.550524    -14.908019
PG04  -1929.787897  24870.667847  -8919.837049    212.582653
PG05  17998.916272  -7735.079515  17800.090703   -150.338981
PG06  19130.483620   -715.835506 -18385.386254    506.210778
PG07   4625.251145  16041.694087  21038.415968     13.755087
PG08  -7243.578960  19305.954500  16428.692208   -152.054406
PG09   6847.981870  25602.906642   1107.456077     -3.267640
PG10 -23819.729406 -11195.996547   4906.035271    -61.351056
PG11  22675.949309 -10228.783969  -9209.967899   -459.586272
PG12   6978.769337 -13623.152292 -21982.054346   -446.869752
PG13  13280.135438 -10209.125515  20356.347006    595.156341
PG14  21597.083444  13593.836462   7704.589722    242.939608
PG15   4498.248950 -20697.573838  15402.141976     97.024528
PG16 -22440.877091   1154.630371  14194.316247   -422.257383
PG17  12534.966225  18145.420794 -14267.753386    723.250988
PG18  -5407.009172 -14614.270299  21493.932591   -478.769478
PG19  14789.231258   9889.834447 -20022.050257    398.765967
PG20  25249.317370  -1940.554468   7737.225232    401.693381
PG21 -17382.628720  19361.920683   -717.023351    144.297950
PG22  23932.143579  11130.414091   1119.746561     84.121497
PG23 -15209.858961 -15410.036610  15520.635458     98.753320
PG24  13852.925844 -21649.008447  -6139.835605   -370.961741
PG25  -7332.339263 -16861.389718 -19584.791094    477.339736
PG26 -26139.993387  -2699.369735   4894.030861    216.719570
PG27 -13920.194884   6081.068544  21495.906542    -69.774988
PG28 -18298.557059  -1050.342651 -19249.502854    -45.963447
PG29  -4139.056705 -26160.424525    957.810156   -610.224139
PG30  13999.788546   8383.840755  21110.706264   -468.359589
PG31 -22233.765031   6370.755103 -13621.494509   -225.723292
PG32 -15060.251755 -14112.317623 -16648.658695   -585.570876
PJ02 -27695.597076  22044.808588  28042.894186     -0.167493
PJ03 -32989.444795  25839.342296   9817.642586     -8.207718
PJ04 -22595.716943  22330.758687 -22644.142047     72.379555
PR01  17463.966889  14320.638707  11857.842469     69.811405
PR02  11964.467908  -1105.714278  22528.893893    -22.346446
PR03    164.800434 -16172.022672  19789.807883     88.996860
PR04 -11329.763093 -21977.151056   6339.126589    211.032907
PR05 -16749.522971 -16094.858856 -10570.970489    122.197112
PR07    427.649175  16632.036904 -19278.774809     69.094702
PR08  11602.212064  21867.506326  -6014.508275    -73.266974
PR09 -24137.907623   5609.084618   5890.333807    153.165967
PR11   5431.018834  10299.818990  22705.845455   -213.094872
PR12  22323.061389   3720.394861  11775.506230     33.409762
PR13  24878.938063  -4235.072617  -3708.807885    -41.296737
PR14  12207.365018 -10724.271322 -19658.864289     25.545396
PR15  -6871.969174 -10183.456492 -22336.941724     84.783109
PR16 -22173.511855  -3628.505283 -12038.441188     20.603574
PR17  10970.418836 -23000.691795    273.501341     34.779931
PR18   2005.997323 -20008.950355  15743.287827    111.896552
PR19  -7089.574823  -8474.834327  22996.148554   -254.627536
PR20 -14934.420332  11984.218947  16848.186950   -103.513013
PR21 -10880.464359  23070.387368   -952.121710    -53.318520
PR22  -1706.275200  19518.844257 -16297.261433     93.478663
PR24  14792.182122 -12947.033324 -16218.738263    -32.102997
PR25 -11971.672806  22538.046705   -252.995033     -5.738258
PR26  11398.980089  21830.151915  -6663.679194    -16.763354
EOF
